[Satellite]
VERSION=1.1
NAME=DMSP 5D-2 F14 (USA 131)
NICKNAME=DMSP 5D-2 F14 (USA 131)
TLE1=1 24753U 97012A   19317.50436929  .00000039  00000-0  43173-4 0  9993
TLE2=2 24753  99.0308 326.4070 0009722  99.5083 260.7189 14.15873006167763
STATUS=0
